OBJECT_NAME,OBJECT_ID,EPOCH,MEAN_MOTION,ECCENTRICITY,INCLINATION,RA_OF_ASC_NODE,ARG_OF_PERICENTER,MEAN_ANOMALY,EPHEMERIS_TYPE,CLASSIFICATION_TYPE,NORAD_CAT_ID,ELEMENT_SET_NO,REV_AT_EPOCH,BSTAR,MEAN_MOTION_DOT,MEAN_MOTION_DDOT
IRIDIUM 154,2018-061F,2026-07-22T19:31:30.465120,14.34218000,.00022861,86.3939,41.9035,88.8572,271.2886,0,U,43574,999,41851,.22369697E-4,.82E-6,0
IRIDIUM 163,2018-061G,2026-07-22T12:22:14.428992,14.34218370,.00021157,86.3936,41.9422,87.8746,272.2692,0,U,43575,999,41844,.32277758E-4,.11E-5,0
IRIDIUM 156,2018-061H,2026-07-22T13:26:10.397184,14.34217941,.00022039,86.3936,41.9312,93.4641,266.6806,0,U,43576,999,41844,.60732999E-4,.19E-5,0
IRIDIUM 164,2018-061J,2026-07-22T12:58:46.465248,14.34217802,.00022013,86.3933,41.9800,88.1150,272.0298,0,U,43577,999,41848,.2009492E-5,.25E-6,0
IRIDIUM 159,2018-061K,2026-07-22T13:53:34.463040,14.34217421,.00019753,86.3932,41.9002,86.7557,273.3865,0,U,43578,999,41845,-.5114101E-5,.5E-7,0
IRIDIUM 180,2019-002A,2026-07-22T08:51:26.889408,14.34218670,.00020501,86.3996,338.8919,91.3770,268.7660,0,U,43922,999,39403,.59643026E-4,.187E-5,0
IRIDIUM 176,2019-002B,2026-07-22T15:19:04.431936,14.72256146,.00023413,86.6120,338.7177,92.0636,268.0849,0,U,43923,999,40446,.91820713E-4,.604E-5,0
IRIDIUM 168,2019-002C,2026-07-22T15:24:10.916928,14.34218945,.00021933,86.4002,338.8559,91.8821,268.2626,0,U,43924,999,39405,.62965032E-4,.196E-5,0
IRIDIUM 173,2019-002D,2026-07-22T18:26:50.935776,14.34217441,.00020328,86.3996,338.6907,93.2074,266.9354,0,U,43925,999,39405,-.19430868E-4,-.35E-6,0
IRIDIUM 169,2019-002E,2026-07-22T17:24:56.692224,14.38601502,.00021055,86.4234,10.3314,104.4100,255.7332,0,U,43926,999,39533,.70509901E-4,.236E-5,0
IRIDIUM 172,2019-002F,2026-07-22T08:14:54.926592,14.34217946,.0002184,86.3998,338.8761,92.1203,268.0243,0,U,43927,999,39400,.3924276E-5,.31E-6,0
IRIDIUM 175,2019-002G,2026-07-22T21:40:59.509920,14.43630086,.00055732,86.4502,275.5919,100.4267,259.7563,0,U,43928,999,40413,.61515446E-4,.229E-5,0
IRIDIUM 171,2019-002H,2026-07-22T07:47:30.992928,14.34218413,.0002269,86.4009,339.1940,95.3139,264.8316,0,U,43929,999,39399,.66482307E-4,.206E-5,0
IRIDIUM 170,2019-002J,2026-07-22T15:27:57.233952,14.72256740,.00021919,86.6119,338.7172,89.8733,270.2735,0,U,43930,999,40447,.91342063E-4,.601E-5,0
IRIDIUM 167,2019-002K,2026-07-22T07:38:22.873056,14.34393285,.00024735,86.3990,338.9096,121.4205,238.7233,0,U,43931,999,39399,.46780308E-4,.151E-5,0
IRIDIUM 181,2023-068S,2026-07-22T12:48:38.371680,14.43309837,.00023417,86.4475,42.0077,83.7006,276.4462,0,U,56726,999,16753,.62285097E-4,.23E-5,0
IRIDIUM 177,2023-068T,2026-07-22T16:21:48.988800,14.80033487,.0002269,86.1987,311.9415,97.8392,262.3086,0,U,56727,999,17161,.10099212E-3,.79E-5,0
IRIDIUM 174,2023-068U,2026-07-22T20:03:37.602432,14.72252403,.00018987,86.6121,338.7871,94.1921,265.9514,0,U,56728,999,17126,.77699231E-4,.515E-5,0
IRIDIUM 178,2023-068V,2026-07-22T09:36:35.664192,14.80021379,.00022755,86.6543,10.6427,92.1624,267.9858,0,U,56729,999,17157,.90403078E-4,.71E-5,0
IRIDIUM 179,2023-068W,2026-07-22T17:35:41.309664,14.80025358,.00024062,86.6773,19.5876,94.2122,265.9374,0,U,56730,999,17162,.28706108E-4,.243E-5,0
